0 COSMOS 2251 DEB
1 35444U 93036AKN 13283.48522245  .00628681  00000-0  42698-1 0  4716
2 35444 073.9233 212.3429 0153659 077.3715 284.5300 14.97074700237565
0 COSMOS 2251 DEB
1 35444U 93036AKN 13283.50677318  .00017681  00000-0  12096-2 0  4702
2 35444 073.9236 212.2938 0157014 077.9523 040.0475 14.96506240237560
0 COSMOS 2251 DEB
1 35444U 93036AKN 13288.10914616  .00025391  00000-0  17290-2 0  4717
2 35444 073.9246 202.9224 0156791 067.4706 356.0139 14.96634456238258
0 COSMOS 2251 DEB
1 35444U 93036AKN 13289.45673845  .00020513  00000-0  13964-2 0  4728
2 35444 073.9248 200.1778 0156736 064.3589 056.8751 14.96687273238450
0 COSMOS 2251 DEB
1 35444U 93036AKN 13291.11770955  .00018516  00000-0  12591-2 0  4730
2 35444 073.9244 196.7954 0156705 060.5802 006.4981 14.96746815238706
0 COSMOS 2251 DEB
1 35444U 93036AKN 13293.05455037  .00017326  00000-0  11770-2 0  4743
2 35444 073.9237 192.8505 0156621 056.1514 003.0052 14.96803912238990
0 COSMOS 2251 DEB
1 35444U 93036AKN 13295.40473557  .00021207  00000-0  14372-2 0  4756
2 35444 073.9235 188.0635 0156393 050.7636 067.3537 14.96878702239340
